CALSPHERE 1             
1 00900U 64063C   15040.85384402  .00000642  00000-0  69163-3 0  9992
2 00900  90.1433 358.7068 0027041 166.6031 193.5856 13.72288866502257
CALSPHERE 2             
1 00902U 64063E   15040.84901698  .00000056  00000-0  71562-4 0  9991
2 00902  90.1470   1.0512 0018559  26.3106  34.0787 13.52601119296318
LCS 1                   
1 01361U 65034C   15039.21712844  .00000008  00000-0  00000+0 0  9993
2 01361  32.1412 303.2792 0012955 220.7006 321.2279  9.89287967799557
TEMPSAT 1               
1 01512U 65065E   15041.09886657  .00000058  00000-0  97975-4 0  9995
2 01512  89.7917 258.3768 0069632   8.7067 151.4336 13.33367469407644
CALSPHERE 4(A)          
1 01520U 65065H   15039.49139292  .00000102  00000-0  18286-3 0  9998
2 01520  90.1161 114.3683 0067247 275.3147 212.9343 13.35629300409491
OPS 5712 (P/L 160)      
1 02826U 67053A   15040.52310105  .00003740  00000-0  10760-2 0  9996
2 02826  69.9310  85.0602 0006439 204.4128 155.6699 14.45512910464470
OPS 5712 (P/L 153)      
1 02874U 67053H   15040.33822369  .00000021  00000-0  53672-4 0  9998
2 02874  69.9762 355.5934 0007655 199.4809 315.2686 13.96201312428484
SURCAL 150B             
1 02909U 67053J   15041.32031862  .00007979  00000-0  17996-2 0  9993
2 02909  69.9509 192.5950 0007161 265.9262  94.1056 14.56609619472137
RIGIDSPHERE 2 (LCS 4)   
1 05398U 71067E   15041.20028928  .00000687  00000-0  23952-3 0  9993
2 05398  87.6197  42.6959 0062571 231.2590 128.3004 14.33013350279899
